{"spkid": "20481457", "covariance": {"labels": ["e", "q", "tp", "node", "peri", "i"], "data": [["4.802926876546682E-16", "-6.02885024573493E-16", "1.86265719727626E-14", "-3.924829546940333E-14", "1.152418650119717E-13", "1.282100946281324E-14"], ["-6.02885024573493E-16", "7.568439514862254E-16", "-2.31335197214298E-14", "5.09070521006677E-14", "-1.46308889528544E-13", "-1.525409783800233E-14"], ["1.86265719727626E-14", "-2.31335197214298E-14", "2.388241204539334E-12", "2.648770774939035E-11", "-2.280940662139891E-11", "6.667481334102686E-12"], ["-3.924829546940333E-14", "5.09070521006677E-14", "2.648770774939035E-11", "1.257242059756914E-9", "-1.238309689838729E-9", "1.667296307340192E-10"], ["1.152418650119717E-13", "-1.46308889528544E-13", "-2.280940662139891E-11", "-1.238309689838729E-9", "1.23232594554898E-9", "-1.619166487817146E-10"], ["1.282100946281324E-14", "-1.525409783800233E-14", "6.667481334102686E-12", "1.667296307340192E-10", "-1.619166487817146E-10", "3.114341986043567E-11"]], "elements": [{"label": "e", "name": "e", "sigma": 2.19155809335429e-08, "units": null, "title": "eccentricity", "value": ".4250630005790831"}, {"label": "q", "name": "q", "sigma": 2.75107969983828e-08, "value": ".728277532536046", "title": "perihelion distance", "units": "au"}, {"label": "tp", "title": "time of perihelion passage", "value": "2458319.420028302843", "units": "TDB", "name": "tp", "sigma": 1.54539354358019e-06}, {"label": "node", "units": "deg", "value": "65.6289962451916", "title": "longitude of the ascending node", "sigma": 3.54576093350484e-05, "name": "om"}, {"label": "peri", "sigma": 3.51045003603381e-05, "name": "w", "units": "deg", "value": "109.4879338694675", "title": "argument of perihelion"}, {"label": "i", "sigma": 5.58062898430237e-06, "name": "i", "units": "deg", "value": "3.561010646501766", "title": "inclination"}], "epoch": "2458263.5"}, "elements": [{"sigma": "2.1916E-8", "name": "e", "title": "eccentricity", "value": ".4251177502370628", "units": null, "label": "e"}, {"label": "a", "name": "a", "sigma": "6.7896E-10", "units": "au", "title": "semi-major axis", "value": "1.266618072019644"}, {"name": "q", "sigma": "2.7462E-8", "value": ".728156246833047", "title": "perihelion distance", "units": "au", "label": "q"}, {"label": "i", "name": "i", "sigma": "5.5816E-6", "units": "deg", "value": "3.560908705094975", "title": "inclination; angle with respect to x-y ecliptic plane"}, {"label": "node", "units": "deg", "title": "longitude of the ascending node", "value": "65.58006358897667", "sigma": "3.5427E-5", "name": "om"}, {"name": "w", "sigma": "3.5077E-5", "units": "deg", "title": "argument of perihelion", "value": "109.5218392608196", "label": "peri"}, {"label": "M", "name": "ma", "sigma": "2.488E-6", "units": "deg", "title": "mean anomaly", "value": "191.8191219754853"}, {"units": "TDB", "title": "time of perihelion passage", "value": "2461443.743398129066", "sigma": "3.7869E-6", "name": "tp", "label": "tp"}, {"label": "period", "name": "per", "sigma": "4.1865E-7", "value": "520.6752655536719", "title": "sidereal orbital period", "units": "d"}, {"label": "n", "units": "deg/d", "title": "mean motion", "value": ".6914098360658361", "name": "n", "sigma": "5.5593E-10"}, {"units": "au", "value": "1.805079897206242", "title": "aphelion distance", "name": "ad", "sigma": "9.6759E-10", "label": "Q"}], "epoch": "2461200.5"}